<?xml version="1.0" encoding="UTF-8"?>
<ndm xmlns:xsi="http://www.w3.org/2001/XMLSchema-instance" xsi:noNamespaceSchemaLocation="https://sanaregistry.org/r/ndmxml_unqualified/ndmxml-2.0.0-master-2.0.xsd">
<omm id="CCSDS_OMM_VERS" version="2.0">
<header><CREATION_DATE/><ORIGINATOR/></header><body><segment><metadata><OBJECT_NAME>ONEWEB-0128</OBJECT_NAME><OBJECT_ID>2020-100S</OBJECT_ID><CENTER_NAME>EARTH</CENTER_NAME><REF_FRAME>TEME</REF_FRAME><TIME_SYSTEM>UTC</TIME_SYSTEM><MEAN_ELEMENT_THEORY>SGP4</MEAN_ELEMENT_THEORY></metadata><data><meanElements><EPOCH>2024-04-03T02:51:12.787200</EPOCH><MEAN_MOTION>13.12441876</MEAN_MOTION><ECCENTRICITY>.0001735</ECCENTRICITY><INCLINATION>87.8996</INCLINATION><RA_OF_ASC_NODE>150.9267</RA_OF_ASC_NODE><ARG_OF_PERICENTER>104.0834</ARG_OF_PERICENTER><MEAN_ANOMALY>256.0487</MEAN_ANOMALY></meanElements><tleParameters><EPHEMERIS_TYPE>0</EPHEMERIS_TYPE><CLASSIFICATION_TYPE>U</CLASSIFICATION_TYPE><NORAD_CAT_ID>47274</NORAD_CAT_ID><ELEMENT_SET_NO>999</ELEMENT_SET_NO><REV_AT_EPOCH>15914</REV_AT_EPOCH><BSTAR>-.6495E-3</BSTAR><MEAN_MOTION_DOT>-.221E-5</MEAN_MOTION_DOT><MEAN_MOTION_DDOT>0</MEAN_MOTION_DDOT></tleParameters></data></segment></body></omm>
<omm id="CCSDS_OMM_VERS" version="2.0">
<header><CREATION_DATE/><ORIGINATOR/></header><body><segment><metadata><OBJECT_NAME>ONEWEB-0129</OBJECT_NAME><OBJECT_ID>2020-100T</OBJECT_ID><CENTER_NAME>EARTH</CENTER_NAME><REF_FRAME>TEME</REF_FRAME><TIME_SYSTEM>UTC</TIME_SYSTEM><MEAN_ELEMENT_THEORY>SGP4</MEAN_ELEMENT_THEORY></metadata><data><meanElements><EPOCH>2024-04-02T20:52:09.408576</EPOCH><MEAN_MOTION>13.12442952</MEAN_MOTION><ECCENTRICITY>.0003277</ECCENTRICITY><INCLINATION>87.8990</INCLINATION><RA_OF_ASC_NODE>150.9479</RA_OF_ASC_NODE><ARG_OF_PERICENTER>124.7281</ARG_OF_PERICENTER><MEAN_ANOMALY>235.4156</MEAN_ANOMALY></meanElements><tleParameters><EPHEMERIS_TYPE>0</EPHEMERIS_TYPE><CLASSIFICATION_TYPE>U</CLASSIFICATION_TYPE><NORAD_CAT_ID>47275</NORAD_CAT_ID><ELEMENT_SET_NO>999</ELEMENT_SET_NO><REV_AT_EPOCH>15904</REV_AT_EPOCH><BSTAR>-.10737E-2</BSTAR><MEAN_MOTION_DOT>-.374E-5</MEAN_MOTION_DOT><MEAN_MOTION_DDOT>0</MEAN_MOTION_DDOT></tleParameters></data></segment></body></omm>
<omm id="CCSDS_OMM_VERS" version="2.0">
<header><CREATION_DATE/><ORIGINATOR/></header><body><segment><metadata><OBJECT_NAME>ONEWEB-0130</OBJECT_NAME><OBJECT_ID>2020-100U</OBJECT_ID><CENTER_NAME>EARTH</CENTER_NAME><REF_FRAME>TEME</REF_FRAME><TIME_SYSTEM>UTC</TIME_SYSTEM><MEAN_ELEMENT_THEORY>SGP4</MEAN_ELEMENT_THEORY></metadata><data><meanElements><EPOCH>2024-04-03T10:21:47.185632</EPOCH><MEAN_MOTION>13.12446248</MEAN_MOTION><ECCENTRICITY>.0001963</ECCENTRICITY><INCLINATION>87.8988</INCLINATION><RA_OF_ASC_NODE>150.8456</RA_OF_ASC_NODE><ARG_OF_PERICENTER>104.4002</ARG_OF_PERICENTER><MEAN_ANOMALY>255.7344</MEAN_ANOMALY></meanElements><tleParameters><EPHEMERIS_TYPE>0</EPHEMERIS_TYPE><CLASSIFICATION_TYPE>U</CLASSIFICATION_TYPE><NORAD_CAT_ID>47276</NORAD_CAT_ID><ELEMENT_SET_NO>999</ELEMENT_SET_NO><REV_AT_EPOCH>15908</REV_AT_EPOCH><BSTAR>.15248E-3</BSTAR><MEAN_MOTION_DOT>.68E-6</MEAN_MOTION_DOT><MEAN_MOTION_DDOT>0</MEAN_MOTION_DDOT></tleParameters></data></segment></body></omm>
<omm id="CCSDS_OMM_VERS" version="2.0">
<header><CREATION_DATE/><ORIGINATOR/></header><body><segment><metadata><OBJECT_NAME>ONEWEB-0131</OBJECT_NAME><OBJECT_ID>2020-100V</OBJECT_ID><CENTER_NAME>EARTH</CENTER_NAME><REF_FRAME>TEME</REF_FRAME><TIME_SYSTEM>UTC</TIME_SYSTEM><MEAN_ELEMENT_THEORY>SGP4</MEAN_ELEMENT_THEORY></metadata><data><meanElements><EPOCH>2024-04-03T10:17:13.444512</EPOCH><MEAN_MOTION>13.12443956</MEAN_MOTION><ECCENTRICITY>.0001887</ECCENTRICITY><INCLINATION>87.8993</INCLINATION><RA_OF_ASC_NODE>150.8590</RA_OF_ASC_NODE><ARG_OF_PERICENTER>100.9030</ARG_OF_PERICENTER><MEAN_ANOMALY>259.2311</MEAN_ANOMALY></meanElements><tleParameters><EPHEMERIS_TYPE>0</EPHEMERIS_TYPE><CLASSIFICATION_TYPE>U</CLASSIFICATION_TYPE><NORAD_CAT_ID>47277</NORAD_CAT_ID><ELEMENT_SET_NO>999</ELEMENT_SET_NO><REV_AT_EPOCH>15912</REV_AT_EPOCH><BSTAR>-.31125E-3</BSTAR><MEAN_MOTION_DOT>-.99E-6</MEAN_MOTION_DOT><MEAN_MOTION_DDOT>0</MEAN_MOTION_DDOT></tleParameters></data></segment></body></omm>
<omm id="CCSDS_OMM_VERS" version="2.0">
<header><CREATION_DATE/><ORIGINATOR/></header><body><segment><metadata><OBJECT_NAME>ONEWEB-0132</OBJECT_NAME><OBJECT_ID>2020-100W</OBJECT_ID><CENTER_NAME>EARTH</CENTER_NAME><REF_FRAME>TEME</REF_FRAME><TIME_SYSTEM>UTC</TIME_SYSTEM><MEAN_ELEMENT_THEORY>SGP4</MEAN_ELEMENT_THEORY></metadata><data><meanElements><EPOCH>2024-04-02T22:09:55.177920</EPOCH><MEAN_MOTION>13.12441026</MEAN_MOTION><ECCENTRICITY>.0001883</ECCENTRICITY><INCLINATION>87.8992</INCLINATION><RA_OF_ASC_NODE>150.9611</RA_OF_ASC_NODE><ARG_OF_PERICENTER>93.6933</ARG_OF_PERICENTER><MEAN_ANOMALY>266.4411</MEAN_ANOMALY></meanElements><tleParameters><EPHEMERIS_TYPE>0</EPHEMERIS_TYPE><CLASSIFICATION_TYPE>U</CLASSIFICATION_TYPE><NORAD_CAT_ID>47278</NORAD_CAT_ID><ELEMENT_SET_NO>999</ELEMENT_SET_NO><REV_AT_EPOCH>15895</REV_AT_EPOCH><BSTAR>.99492E-3</BSTAR><MEAN_MOTION_DOT>.371E-5</MEAN_MOTION_DOT><MEAN_MOTION_DDOT>0</MEAN_MOTION_DDOT></tleParameters></data></segment></body></omm>
<omm id="CCSDS_OMM_VERS" version="2.0">
<header><CREATION_DATE/><ORIGINATOR/></header><body><segment><metadata><OBJECT_NAME>ONEWEB-0133</OBJECT_NAME><OBJECT_ID>2020-100X</OBJECT_ID><CENTER_NAME>EARTH</CENTER_NAME><REF_FRAME>TEME</REF_FRAME><TIME_SYSTEM>UTC</TIME_SYSTEM><MEAN_ELEMENT_THEORY>SGP4</MEAN_ELEMENT_THEORY></metadata><data><meanElements><EPOCH>2024-04-03T02:12:20.934144</EPOCH><MEAN_MOTION>13.12440855</MEAN_MOTION><ECCENTRICITY>.0001864</ECCENTRICITY><INCLINATION>87.8984</INCLINATION><RA_OF_ASC_NODE>150.9304</RA_OF_ASC_NODE><ARG_OF_PERICENTER>99.0974</ARG_OF_PERICENTER><MEAN_ANOMALY>261.0366</MEAN_ANOMALY></meanElements><tleParameters><EPHEMERIS_TYPE>0</EPHEMERIS_TYPE><CLASSIFICATION_TYPE>U</CLASSIFICATION_TYPE><NORAD_CAT_ID>47279</NORAD_CAT_ID><ELEMENT_SET_NO>999</ELEMENT_SET_NO><REV_AT_EPOCH>15913</REV_AT_EPOCH><BSTAR>-.43839E-3</BSTAR><MEAN_MOTION_DOT>-.145E-5</MEAN_MOTION_DOT><MEAN_MOTION_DDOT>0</MEAN_MOTION_DDOT></tleParameters></data></segment></body></omm>
<omm id="CCSDS_OMM_VERS" version="2.0">
<header><CREATION_DATE/><ORIGINATOR/></header><body><segment><metadata><OBJECT_NAME>ONEWEB-0134</OBJECT_NAME><OBJECT_ID>2020-100Y</OBJECT_ID><CENTER_NAME>EARTH</CENTER_NAME><REF_FRAME>TEME</REF_FRAME><TIME_SYSTEM>UTC</TIME_SYSTEM><MEAN_ELEMENT_THEORY>SGP4</MEAN_ELEMENT_THEORY></metadata><data><meanElements><EPOCH>2024-04-03T03:18:40.758336</EPOCH><MEAN_MOTION>13.12444494</MEAN_MOTION><ECCENTRICITY>.0001816</ECCENTRICITY><INCLINATION>87.8985</INCLINATION><RA_OF_ASC_NODE>150.9100</RA_OF_ASC_NODE><ARG_OF_PERICENTER>107.1988</ARG_OF_PERICENTER><MEAN_ANOMALY>252.9339</MEAN_ANOMALY></meanElements><tleParameters><EPHEMERIS_TYPE>0</EPHEMERIS_TYPE><CLASSIFICATION_TYPE>U</CLASSIFICATION_TYPE><NORAD_CAT_ID>47280</NORAD_CAT_ID><ELEMENT_SET_NO>999</ELEMENT_SET_NO><REV_AT_EPOCH>15911</REV_AT_EPOCH><BSTAR>.11691E-2</BSTAR><MEAN_MOTION_DOT>.433E-5</MEAN_MOTION_DOT><MEAN_MOTION_DDOT>0</MEAN_MOTION_DDOT></tleParameters></data></segment></body></omm>
<omm id="CCSDS_OMM_VERS" version="2.0">
<header><CREATION_DATE/><ORIGINATOR/></header><body><segment><metadata><OBJECT_NAME>ONEWEB-0135</OBJECT_NAME><OBJECT_ID>2020-100Z</OBJECT_ID><CENTER_NAME>EARTH</CENTER_NAME><REF_FRAME>TEME</REF_FRAME><TIME_SYSTEM>UTC</TIME_SYSTEM><MEAN_ELEMENT_THEORY>SGP4</MEAN_ELEMENT_THEORY></metadata><data><meanElements><EPOCH>2024-04-03T09:52:02.493408</EPOCH><MEAN_MOTION>13.12442807</MEAN_MOTION><ECCENTRICITY>.0001987</ECCENTRICITY><INCLINATION>87.8990</INCLINATION><RA_OF_ASC_NODE>150.8673</RA_OF_ASC_NODE><ARG_OF_PERICENTER>101.6120</ARG_OF_PERICENTER><MEAN_ANOMALY>258.5231</MEAN_ANOMALY></meanElements><tleParameters><EPHEMERIS_TYPE>0</EPHEMERIS_TYPE><CLASSIFICATION_TYPE>U</CLASSIFICATION_TYPE><NORAD_CAT_ID>47281</NORAD_CAT_ID><ELEMENT_SET_NO>999</ELEMENT_SET_NO><REV_AT_EPOCH>15917</REV_AT_EPOCH><BSTAR>-.17689E-2</BSTAR><MEAN_MOTION_DOT>-.624E-5</MEAN_MOTION_DOT><MEAN_MOTION_DDOT>0</MEAN_MOTION_DDOT></tleParameters></data></segment></body></omm>
<omm id="CCSDS_OMM_VERS" version="2.0">
<header><CREATION_DATE/><ORIGINATOR/></header><body><segment><metadata><OBJECT_NAME>ONEWEB-0136</OBJECT_NAME><OBJECT_ID>2020-100AA</OBJECT_ID><CENTER_NAME>EARTH</CENTER_NAME><REF_FRAME>TEME</REF_FRAME><TIME_SYSTEM>UTC</TIME_SYSTEM><MEAN_ELEMENT_THEORY>SGP4</MEAN_ELEMENT_THEORY></metadata><data><meanElements><EPOCH>2024-04-03T03:04:57.479520</EPOCH><MEAN_MOTION>13.12443685</MEAN_MOTION><ECCENTRICITY>.000186</ECCENTRICITY><INCLINATION>87.8991</INCLINATION><RA_OF_ASC_NODE>150.8918</RA_OF_ASC_NODE><ARG_OF_PERICENTER>115.7186</ARG_OF_PERICENTER><MEAN_ANOMALY>244.4134</MEAN_ANOMALY></meanElements><tleParameters><EPHEMERIS_TYPE>0</EPHEMERIS_TYPE><CLASSIFICATION_TYPE>U</CLASSIFICATION_TYPE><NORAD_CAT_ID>47282</NORAD_CAT_ID><ELEMENT_SET_NO>999</ELEMENT_SET_NO><REV_AT_EPOCH>15906</REV_AT_EPOCH><BSTAR>.18598E-3</BSTAR><MEAN_MOTION_DOT>.8E-6</MEAN_MOTION_DOT><MEAN_MOTION_DDOT>0</MEAN_MOTION_DDOT></tleParameters></data></segment></body></omm>

</ndm>
